NORAD_CAT_ID,OBJECT_NAME,OBJECT_TYPE,EPOCH,MEAN_MOTION,ECCENTRICITY,INCLINATION,RA_OF_ASC_NODE,ARG_OF_PERICENTER,MEAN_ANOMALY,BSTAR,MEAN_MOTION_DOT,MEAN_MOTION_DDOT,TLE_LINE0,TLE_LINE1,TLE_LINE2,SEMIMAJOR_AXIS,PERIOD,APOGEE,PERIGEE,DECAYED
54157.0,STARLINK-5290,PAYLOAD,2024-04-29 22:00:01,15.10479862,0.0001547,53.2143,181.2563,78.2813,348.3952,0.00078112,0.00012736,0.0,0 STARLINK-5290,1 54157U 22141A   24120.91668981  .00012736  00000-0  78112-3 0  9990,2 54157  53.2143 181.2563 0001547  78.2813 348.3952 15.10479862 83248,6912.873,95.334,535.807,533.668,0.0
54157.0,STARLINK-5290,PAYLOAD,2024-04-30 10:24:40,15.10482664,0.0001711,53.2153,178.9285,82.9704,277.1484,0.00046437,7.448e-05,0.0,0 STARLINK-5290,1 54157U 22141A   24121.43380460  .00007448  00000-0  46437-3 0  9990,2 54157  53.2153 178.9285 0001711  82.9704 277.1484 15.10482664 83329,6912.864,95.334,535.912,533.546,0.0
54157.0,STARLINK-5290,PAYLOAD,2024-05-01 10:13:53,15.10486007,0.0001719,53.2153,174.4614,84.7078,275.4111,5.3564e-05,5.99e-06,0.0,0 STARLINK-5290,1 54157U 22141A   24122.42631875  .00000599  00000-0  53564-4 0  9999,2 54157  53.2153 174.4614 0001719  84.7078 275.4111 15.10486007 83477,6912.854,95.334,535.907,533.53,0.0
54157.0,STARLINK-5290,PAYLOAD,2024-05-02 08:27:51,15.10479091,0.0001597,53.2159,170.293,85.4406,274.6769,2.6796e-05,1.53e-06,0.0,0 STARLINK-5290,1 54157U 22141A   24123.35267554  .00000153  00000-0  26796-4 0  9994,2 54157  53.2159 170.2930 0001597  85.4406 274.6769 15.10479091 83616,6912.875,95.334,535.844,533.636,0.0
54157.0,STARLINK-5290,PAYLOAD,2024-05-03 13:02:55,15.10480226,0.0001551,53.2163,164.9324,84.3034,275.8135,6.9346e-05,8.62e-06,0.0,0 STARLINK-5290,1 54157U 22141A   24124.54369849  .00000862  00000-0  69346-4 0  9991,2 54157  53.2163 164.9324 0001551  84.3034 275.8135 15.10480226 83794,6912.871,95.334,535.809,533.664,0.0
54157.0,STARLINK-5290,PAYLOAD,2024-05-03 19:24:03,15.10471724,0.0001453,53.2151,163.7374,79.2337,280.8819,3.23e-05,2.45e-06,0.0,0 STARLINK-5290,1 54157U 22141A   24124.80837757  .00000245  00000-0  32300-4 0  9993,2 54157  53.2151 163.7374 0001453  79.2337 280.8819 15.10471724 83836,6912.897,95.334,535.767,533.758,0.0
54157.0,STARLINK-5290,PAYLOAD,2024-05-04 09:41:40,15.10422597,0.0001821,53.2164,161.0601,101.6369,258.4828,-0.00035931,-6.26e-05,0.0,0 STARLINK-5290,1 54157U 22141A   24125.40393758 -.00006260  00000-0 -35931-3 0  9995,2 54157  53.2164 161.0601 0001821 101.6369 258.4828 15.10422597 83923,6913.047,95.338,536.171,533.653,0.0
54157.0,STARLINK-5290,PAYLOAD,2024-05-05 03:10:26,15.09987866,0.0001006,53.2165,157.7865,80.9709,279.1398,-0.003566,-0.00058386,0.0,0 STARLINK-5290,1 54157U 22141A   24126.13225443 -.00058386  00000-0 -35660-2 0  9995,2 54157  53.2165 157.7865 0001006  80.9709 279.1398 15.09987866 84038,6914.374,95.365,536.935,535.543,0.0
54157.0,STARLINK-5290,PAYLOAD,2024-05-05 11:07:15,15.09788338,0.000201,53.2157,156.297,54.3079,305.81,-0.0048822,-0.00079168,0.0,0 STARLINK-5290,1 54157U 22141A   24126.46337592 -.00079168  00000-0 -48822-2 0  9995,2 54157  53.2157 156.2970 0002010  54.3079 305.8100 15.09788338 84087,6914.983,95.378,538.238,535.458,0.0
54157.0,STARLINK-5290,PAYLOAD,2024-05-05 14:18:01,15.09686865,0.0001354,53.2164,155.7038,96.9733,263.1414,-0.0055503,-0.00089578,0.0,0 STARLINK-5290,1 54157U 22141A   24126.59584836 -.00089578  00000-0 -55503-2 0  9994,2 54157  53.2164 155.7038 0001354  96.9733 263.1414 15.09686865 84102,6915.293,95.384,538.094,536.222,0.0
54157.0,STARLINK-5290,PAYLOAD,2024-05-05 22:00:00,15.08803793,0.0001508,53.2138,154.2627,102.9067,202.5973,0.0026222,0.0004165,0.0,0 STARLINK-5290,1 54157U 22141A   24126.91667824  .00041650  00000-0  26222-2 0  9992,2 54157  53.2138 154.2627 0001508 102.9067 202.5973 15.08803793 84141,6917.991,95.44,540.899,538.813,0.0
54157.0,STARLINK-5290,PAYLOAD,2024-05-06 14:00:01,15.08824862,0.0001501,53.2137,151.2715,92.4901,236.1656,0.00092722,0.00014493,0.0,0 STARLINK-5290,1 54157U 22141A   24127.58334491  .00014493  00000-0  92722-3 0  9991,2 54157  53.2137 151.2715 0001501  92.4901 236.1656 15.08824862 84240,6917.927,95.439,540.83,538.753,0.0
54157.0,STARLINK-5290,PAYLOAD,2024-05-06 22:00:01,15.08817559,0.0001552,53.2136,149.7731,100.5182,239.8055,0.0034954,0.00055747,0.0,0 STARLINK-5290,1 54157U 22141A   24127.91668981  .00055747  00000-0  34954-2 0  9991,2 54157  53.2136 149.7731 0001552 100.5182 239.8055 15.08817559  5754,6917.949,95.439,540.888,538.74,0.0
54157.0,STARLINK-5290,PAYLOAD,2024-05-07 14:00:01,15.0882495,0.0001459,53.2136,146.7817,86.7627,276.6845,0.00056612,8.73e-05,0.0,0 STARLINK-5290,1 54157U 22141A   24128.58334491  .00008730  00000-0  56612-3 0  9997,2 54157  53.2136 146.7817 0001459  86.7627 276.6845 15.08824950  5862,6917.926,95.439,540.801,538.782,0.0
54157.0,STARLINK-5290,PAYLOAD,2024-05-07 22:00:00,15.0880762,0.0001467,53.2138,145.2834,96.1512,278.8893,0.0033646,0.0005362,0.0,0 STARLINK-5290,1 54157U 22141A   24128.91667824  .00053620  00000-0  33646-2 0  9992,2 54157  53.2138 145.2834 0001467  96.1512 278.8893 15.08807620 84458,6917.979,95.44,540.859,538.829,0.0
54157.0,STARLINK-5290,PAYLOAD,2024-05-08 14:00:01,15.08835742,0.0001474,53.214,142.292,83.4124,314.7942,0.0002866,4.276e-05,0.0,0 STARLINK-5290,1 54157U 22141A   24129.58334491  .00004276  00000-0  28660-3 0  9991,2 54157  53.2140 142.2920 0001474  83.4124 314.7942 15.08835742 84552,6917.893,95.438,540.778,538.739,0.0
54157.0,STARLINK-5290,PAYLOAD,2024-05-08 22:00:00,15.08818009,0.0001471,53.2144,140.7938,94.015,315.7949,0.0033128,0.00052799,0.0,0 STARLINK-5290,1 54157U 22141A   24129.91667824  .00052799  00000-0  33128-2 0  9994,2 54157  53.2144 140.7938 0001471  94.0150 315.7949 15.08818009  5752,6917.948,95.439,540.83,538.795,0.0
54157.0,STARLINK-5290,PAYLOAD,2024-05-09 10:29:55,15.08843499,0.0001387,53.2153,138.4565,92.2773,267.8377,5.727e-05,6.24e-06,0.0,0 STARLINK-5290,1 54157U 22141A   24130.43745027  .00000624  00000-0  57270-4 0  9991,2 54157  53.2153 138.4565 0001387  92.2773 267.8377 15.08843499 84681,6917.87,95.437,540.694,538.775,0.0
54157.0,STARLINK-5290,PAYLOAD,2024-05-10 03:59:10,15.08836816,0.0001396,53.2157,135.1846,92.417,267.6982,5.0942e-05,5.23e-06,0.0,0 STARLINK-5290,1 54157U 22141A   24131.16609691  .00000523  00000-0  50942-4 0  9995,2 54157  53.2157 135.1846 0001396  92.4170 267.6982 15.08836816 84791,6917.89,95.438,540.721,538.789,0.0
54157.0,STARLINK-5290,PAYLOAD,2024-05-10 07:09:56,15.08838142,0.0001426,53.216,134.59,92.7031,267.4124,6.0205e-05,6.7e-06,0.0,0 STARLINK-5290,1 54157U 22141A   24131.29857602  .00000670  00000-0  60205-4 0  9992,2 54157  53.2160 134.5900 0001426  92.7031 267.4124 15.08838142 84815,6917.886,95.438,540.738,538.765,0.0
54157.0,STARLINK-5290,PAYLOAD,2024-05-10 16:42:15,15.08839832,0.0001436,53.2162,132.8071,92.1858,267.9299,4.9107e-05,4.94e-06,0.0,0 STARLINK-5290,1 54157U 22141A   24131.69601606  .00000494  00000-0  49107-4 0  9999,2 54157  53.2162 132.8071 0001436  92.1858 267.9299 15.08839832 84870,6917.881,95.438,540.739,538.752,0.0
54157.0,STARLINK-5290,PAYLOAD,2024-05-11 05:25:20,15.08848086,0.0001549,53.2166,130.4275,93.0193,267.0976,0.00011072,1.475e-05,0.0,0 STARLINK-5290,1 54157U 22141A   24132.22593056  .00001475  00000-0  11072-3 0  9997,2 54157  53.2166 130.4275 0001549  93.0193 267.0976 15.08848086 84954,6917.856,95.437,540.792,538.649,0.0
54157.0,STARLINK-5290,PAYLOAD,2024-05-11 16:33:00,15.08867887,0.0001588,53.2174,128.3471,92.2558,267.8616,0.00019158,2.765e-05,0.0,0 STARLINK-5290,1 54157U 22141A   24132.68959178  .00002765  00000-0  19158-3 0  9994,2 54157  53.2174 128.3471 0001588  92.2558 267.8616 15.08867887 85024,6917.795,95.436,540.759,538.562,0.0
54157.0,STARLINK-5290,PAYLOAD,2024-05-12 05:16:09,15.08790475,0.0001151,53.2163,125.9695,88.7265,271.3859,-0.00099178,-0.00016016,0.0,0 STARLINK-5290,1 54157U 22141A   24133.21954882 -.00016016  00000-0 -99178-3 0  9997,2 54157  53.2163 125.9695 0001151  88.7265 271.3859 15.08790475 85100,6918.032,95.441,540.693,539.101,0.0
54157.0,STARLINK-5290,PAYLOAD,2024-05-12 06:51:31,15.08789078,0.0001143,53.2161,125.6719,92.2718,267.8405,-0.0012176,-0.00019586,0.0,0 STARLINK-5290,1 54157U 22141A   24133.28578673 -.00019586  00000-0 -12176-2 0  9991,2 54157  53.2161 125.6719 0001143  92.2718 267.8405 15.08789078 85111,6918.036,95.441,540.692,539.11,0.0
54157.0,STARLINK-5290,PAYLOAD,2024-05-12 16:23:51,15.08788145,0.0001201,53.2163,123.8867,111.2253,248.8868,-0.00095805,-0.00015481,0.0,0 STARLINK-5290,1 54157U 22141A   24133.68323508 -.00015481  00000-0 -95805-3 0  9991,2 54157  53.2163 123.8867 0001201 111.2253 248.8868 15.08788145 85170,6918.039,95.441,540.735,539.073,0.0
54157.0,STARLINK-5290,PAYLOAD,2024-05-13 05:06:57,15.08811691,0.0001489,53.2156,121.5086,98.9769,261.1392,0.0012798,0.00020123,0.0,0 STARLINK-5290,1 54157U 22141A   24134.21316786  .00020123  00000-0  12798-2 0  9997,2 54157  53.2156 121.5086 0001489  98.9769 261.1392 15.08811691 85253,6917.967,95.439,540.862,538.802,0.0
54157.0,STARLINK-5290,PAYLOAD,2024-05-13 08:17:43,15.08824385,0.000139,53.2165,120.9117,91.1556,268.9596,0.0014766,0.0002328,0.0,0 STARLINK-5290,1 54157U 22141A   24134.34564801  .00023280  00000-0  14766-2 0  9998,2 54157  53.2165 120.9117 0001390  91.1556 268.9596 15.08824385 85278,6917.928,95.439,540.755,538.832,0.0
54157.0,STARLINK-5290,PAYLOAD,2024-05-14 04:57:43,15.0886502,0.0001247,53.2163,117.0472,104.0746,256.0385,0.00092759,0.00014515,0.0,0 STARLINK-5290,1 54157U 22141A   24135.20675680  .00014515  00000-0  92759-3 0  9992,2 54157  53.2163 117.0472 0001247 104.0746 256.0385 15.08865020 85403,6917.804,95.436,540.532,538.806,0.0
54157.0,STARLINK-5290,PAYLOAD,2024-05-14 08:08:29,15.08866798,0.0001162,53.2157,116.4524,104.5832,255.5289,0.00085026,0.0001328,0.0,0 STARLINK-5290,1 54157U 22141A   24135.33923472  .00013280  00000-0  85026-3 0  9998,2 54157  53.2157 116.4524 0001162 104.5832 255.5289 15.08866798 85426,6917.798,95.436,540.467,538.86,0.0
